COSMOS 1892             
1 18421U 87088A   25320.57859639  .00481637  10314-3  80546-3 0  9998
2 18421  82.4669  73.2662 0006389 276.8609  83.1943 16.02847037 87127
SL-14 R/B               
1 18749U 88001B   25320.70892492  .00000999  00000+0  11315-3 0  9999
2 18749  82.5107 301.6349 0016530 250.4487 109.4945 14.85384232 25251
COSMOS 1933             
1 18958U 88020A   25320.56540063  .00005437  00000+0  27509-3 0  9994
2 18958  82.5156   2.7354 0003338 214.8665 145.2350 15.16825831 33073
SL-3 R/B                
1 19046U 88032B   25320.76735146  .00008919  00000+0  43371-3 0  9999
2 19046  97.5051 299.6789 0024904 267.6280  92.2103 15.18372710 34963
SL-16 R/B               
1 19120U 88039B   25320.67533613 -.00000013  00000+0  16679-4 0  9994
2 19120  71.0142 307.5098 0020890 159.3939 200.8034 14.19590136942348
COSMOS 1953             
1 19210U 88050A   25320.61858817  .00008659  00000+0  32958-3 0  9997
2 19210  82.5075 271.7830 0012646 152.0619 208.1301 15.26521685 20528
SL-8 R/B                
1 19257U 88053B   25320.47701947  .00000560  00000+0  19022-3 0  9996
2 19257  74.0469 321.1246 0019900 173.8061 298.4243 14.38838046960316
COSMOS 1975             
1 19573U 88093A   25320.48934549  .00014609  00000+0  56735-3 0  9999
2 19573  82.5221 231.0924 0010413 200.7711 159.3106 15.25911238  2133
SL-14 R/B               
1 19574U 88093B   25320.50517453  .00000895  00000+0  10044-3 0  9999
2 19574  82.5293 148.2874 0022034  55.0810   3.8512 14.85510926984237
SL-16 R/B               
1 19650U 88102B   25320.60571952  .00000085  00000+0  67009-4 0  9995
2 19650  71.0011  29.4312 0014565 192.2075 167.8698 14.16130577910887
INTERCOSMOS 24          
1 20261U 89080A   25320.52489112  .00001063  00000+0  31169-3 0  9992
2 20261  82.6064 177.9988 1188201 195.3273 160.8697 12.59380494652554
SL-14 R/B               
1 20262U 89080C   25320.74132477  .00000550  00000+0  15647-3 0  9999
2 20262  82.5935 245.7041 1231165  82.9855 290.9331 12.50385102646038
