CCSDS_OMM_VERS = 2.0
CREATION_DATE  = 
ORIGINATOR     = 

OBJECT_NAME    = COSMOS 1892
OBJECT_ID      = 1987-088A
CENTER_NAME    = EARTH
REF_FRAME      = TEME
TIME_SYSTEM    = UTC
MEAN_ELEMENT_THEORY = SGP/SGP4

EPOCH          = 2025-11-16T13:53:10.728096
MEAN_MOTION    = 16.02847037
ECCENTRICITY   = .00063894
INCLINATION    = 82.4669
RA_OF_ASC_NODE = 73.2662
ARG_OF_PERICENTER = 276.8609
MEAN_ANOMALY   = 83.1943

EPHEMERIS_TYPE = 0
CLASSIFICATION_TYPE = U
NORAD_CAT_ID   = 18421
ELEMENT_SET_NO = 999
REV_AT_EPOCH   = 8712
BSTAR          = .80545621E-3
MEAN_MOTION_DOT = .481637E-2
MEAN_MOTION_DDOT = .10313714E-3

CCSDS_OMM_VERS = 2.0
CREATION_DATE  = 
ORIGINATOR     = 

OBJECT_NAME    = SL-14 R/B
OBJECT_ID      = 1988-001B
CENTER_NAME    = EARTH
REF_FRAME      = TEME
TIME_SYSTEM    = UTC
MEAN_ELEMENT_THEORY = SGP/SGP4

EPOCH          = 2025-11-16T17:00:51.113088
MEAN_MOTION    = 14.85384232
ECCENTRICITY   = .001653
INCLINATION    = 82.5107
RA_OF_ASC_NODE = 301.6349
ARG_OF_PERICENTER = 250.4487
MEAN_ANOMALY   = 109.4945

EPHEMERIS_TYPE = 0
CLASSIFICATION_TYPE = U
NORAD_CAT_ID   = 18749
ELEMENT_SET_NO = 999
REV_AT_EPOCH   = 2525
BSTAR          = .11315E-3
MEAN_MOTION_DOT = .999E-5
MEAN_MOTION_DDOT = 0

CCSDS_OMM_VERS = 2.0
CREATION_DATE  = 
ORIGINATOR     = 

OBJECT_NAME    = COSMOS 1933
OBJECT_ID      = 1988-020A
CENTER_NAME    = EARTH
REF_FRAME      = TEME
TIME_SYSTEM    = UTC
MEAN_ELEMENT_THEORY = SGP/SGP4

EPOCH          = 2025-11-16T13:34:10.614432
MEAN_MOTION    = 15.16825831
ECCENTRICITY   = .00033382
INCLINATION    = 82.5156
RA_OF_ASC_NODE = 2.7354
ARG_OF_PERICENTER = 214.8665
MEAN_ANOMALY   = 145.2350

EPHEMERIS_TYPE = 0
CLASSIFICATION_TYPE = U
NORAD_CAT_ID   = 18958
ELEMENT_SET_NO = 999
REV_AT_EPOCH   = 3307
BSTAR          = .27509476E-3
MEAN_MOTION_DOT = .5437E-4
MEAN_MOTION_DDOT = 0

CCSDS_OMM_VERS = 2.0
CREATION_DATE  = 
ORIGINATOR     = 

OBJECT_NAME    = SL-3 R/B
OBJECT_ID      = 1988-032B
CENTER_NAME    = EARTH
REF_FRAME      = TEME
TIME_SYSTEM    = UTC
MEAN_ELEMENT_THEORY = SGP/SGP4

EPOCH          = 2025-11-16T18:24:59.166144
MEAN_MOTION    = 15.18372710
ECCENTRICITY   = .0024904
INCLINATION    = 97.5051
RA_OF_ASC_NODE = 299.6789
ARG_OF_PERICENTER = 267.6280
MEAN_ANOMALY   = 92.2103

EPHEMERIS_TYPE = 0
CLASSIFICATION_TYPE = U
NORAD_CAT_ID   = 19046
ELEMENT_SET_NO = 999
REV_AT_EPOCH   = 3496
BSTAR          = .43371E-3
MEAN_MOTION_DOT = .8919E-4
MEAN_MOTION_DDOT = 0

CCSDS_OMM_VERS = 2.0
CREATION_DATE  = 
ORIGINATOR     = 

OBJECT_NAME    = SL-16 R/B
OBJECT_ID      = 1988-039B
CENTER_NAME    = EARTH
REF_FRAME      = TEME
TIME_SYSTEM    = UTC
MEAN_ELEMENT_THEORY = SGP/SGP4

EPOCH          = 2025-11-16T16:12:29.041632
MEAN_MOTION    = 14.19590136
ECCENTRICITY   = .002089
INCLINATION    = 71.0142
RA_OF_ASC_NODE = 307.5098
ARG_OF_PERICENTER = 159.3939
MEAN_ANOMALY   = 200.8034

EPHEMERIS_TYPE = 0
CLASSIFICATION_TYPE = U
NORAD_CAT_ID   = 19120
ELEMENT_SET_NO = 999
REV_AT_EPOCH   = 94234
BSTAR          = .16679E-4
MEAN_MOTION_DOT = -.13E-6
MEAN_MOTION_DDOT = 0

CCSDS_OMM_VERS = 2.0
CREATION_DATE  = 
ORIGINATOR     = 

OBJECT_NAME    = COSMOS 1953
OBJECT_ID      = 1988-050A
CENTER_NAME    = EARTH
REF_FRAME      = TEME
TIME_SYSTEM    = UTC
MEAN_ELEMENT_THEORY = SGP/SGP4

EPOCH          = 2025-11-16T14:50:46.017888
MEAN_MOTION    = 15.26521685
ECCENTRICITY   = .00126465
INCLINATION    = 82.5075
RA_OF_ASC_NODE = 271.7830
ARG_OF_PERICENTER = 152.0619
MEAN_ANOMALY   = 208.1301

EPHEMERIS_TYPE = 0
CLASSIFICATION_TYPE = U
NORAD_CAT_ID   = 19210
ELEMENT_SET_NO = 999
REV_AT_EPOCH   = 2052
BSTAR          = .32957621E-3
MEAN_MOTION_DOT = .8659E-4
MEAN_MOTION_DDOT = 0

CCSDS_OMM_VERS = 2.0
CREATION_DATE  = 
ORIGINATOR     = 

OBJECT_NAME    = SL-8 R/B
OBJECT_ID      = 1988-053B
CENTER_NAME    = EARTH
REF_FRAME      = TEME
TIME_SYSTEM    = UTC
MEAN_ELEMENT_THEORY = SGP/SGP4

EPOCH          = 2025-11-16T11:26:54.482208
MEAN_MOTION    = 14.38838046
ECCENTRICITY   = .00199003
INCLINATION    = 74.0469
RA_OF_ASC_NODE = 321.1246
ARG_OF_PERICENTER = 173.8061
MEAN_ANOMALY   = 298.4243

EPHEMERIS_TYPE = 0
CLASSIFICATION_TYPE = U
NORAD_CAT_ID   = 19257
ELEMENT_SET_NO = 999
REV_AT_EPOCH   = 96031
BSTAR          = .19021789E-3
MEAN_MOTION_DOT = .56E-5
MEAN_MOTION_DDOT = 0

CCSDS_OMM_VERS = 2.0
CREATION_DATE  = 
ORIGINATOR     = 

OBJECT_NAME    = COSMOS 1975
OBJECT_ID      = 1988-093A
CENTER_NAME    = EARTH
REF_FRAME      = TEME
TIME_SYSTEM    = UTC
MEAN_ELEMENT_THEORY = SGP/SGP4

EPOCH          = 2025-11-16T11:44:39.450336
MEAN_MOTION    = 15.25911238
ECCENTRICITY   = .00104135
INCLINATION    = 82.5221
RA_OF_ASC_NODE = 231.0924
ARG_OF_PERICENTER = 200.7711
MEAN_ANOMALY   = 159.3106

EPHEMERIS_TYPE = 0
CLASSIFICATION_TYPE = U
NORAD_CAT_ID   = 19573
ELEMENT_SET_NO = 999
REV_AT_EPOCH   = 213
BSTAR          = .56735369E-3
MEAN_MOTION_DOT = .14609E-3
MEAN_MOTION_DDOT = 0

CCSDS_OMM_VERS = 2.0
CREATION_DATE  = 
ORIGINATOR     = 

OBJECT_NAME    = SL-14 R/B
OBJECT_ID      = 1988-093B
CENTER_NAME    = EARTH
REF_FRAME      = TEME
TIME_SYSTEM    = UTC
MEAN_ELEMENT_THEORY = SGP/SGP4

EPOCH          = 2025-11-16T12:07:27.079392
MEAN_MOTION    = 14.85510926
ECCENTRICITY   = .00220348
INCLINATION    = 82.5293
RA_OF_ASC_NODE = 148.2874
ARG_OF_PERICENTER = 55.0810
MEAN_ANOMALY   = 3.8512

EPHEMERIS_TYPE = 0
CLASSIFICATION_TYPE = U
NORAD_CAT_ID   = 19574
ELEMENT_SET_NO = 999
REV_AT_EPOCH   = 98423
BSTAR          = .10044017E-3
MEAN_MOTION_DOT = .895E-5
MEAN_MOTION_DDOT = 0

CCSDS_OMM_VERS = 2.0
CREATION_DATE  = 
ORIGINATOR     = 

OBJECT_NAME    = SL-16 R/B
OBJECT_ID      = 1988-102B
CENTER_NAME    = EARTH
REF_FRAME      = TEME
TIME_SYSTEM    = UTC
MEAN_ELEMENT_THEORY = SGP/SGP4

EPOCH          = 2025-11-16T14:32:14.166528
MEAN_MOTION    = 14.16130577
ECCENTRICITY   = .00145657
INCLINATION    = 71.0011
RA_OF_ASC_NODE = 29.4312
ARG_OF_PERICENTER = 192.2075
MEAN_ANOMALY   = 167.8698

EPHEMERIS_TYPE = 0
CLASSIFICATION_TYPE = U
NORAD_CAT_ID   = 19650
ELEMENT_SET_NO = 999
REV_AT_EPOCH   = 91088
BSTAR          = .67008991E-4
MEAN_MOTION_DOT = .85E-6
MEAN_MOTION_DDOT = 0

CCSDS_OMM_VERS = 2.0
CREATION_DATE  = 
ORIGINATOR     = 

OBJECT_NAME    = INTERCOSMOS 24
OBJECT_ID      = 1989-080A
CENTER_NAME    = EARTH
REF_FRAME      = TEME
TIME_SYSTEM    = UTC
MEAN_ELEMENT_THEORY = SGP/SGP4

EPOCH          = 2025-11-16T12:35:50.592768
MEAN_MOTION    = 12.59380494
ECCENTRICITY   = .11882018
INCLINATION    = 82.6064
RA_OF_ASC_NODE = 177.9988
ARG_OF_PERICENTER = 195.3273
MEAN_ANOMALY   = 160.8697

EPHEMERIS_TYPE = 0
CLASSIFICATION_TYPE = U
NORAD_CAT_ID   = 20261
ELEMENT_SET_NO = 999
REV_AT_EPOCH   = 65255
BSTAR          = .31169068E-3
MEAN_MOTION_DOT = .1063E-4
MEAN_MOTION_DDOT = 0

CCSDS_OMM_VERS = 2.0
CREATION_DATE  = 
ORIGINATOR     = 

OBJECT_NAME    = SL-14 R/B
OBJECT_ID      = 1989-080C
CENTER_NAME    = EARTH
REF_FRAME      = TEME
TIME_SYSTEM    = UTC
MEAN_ELEMENT_THEORY = SGP/SGP4

EPOCH          = 2025-11-16T17:47:30.460128
MEAN_MOTION    = 12.50385102
ECCENTRICITY   = .1231165
INCLINATION    = 82.5935
RA_OF_ASC_NODE = 245.7041
ARG_OF_PERICENTER = 82.9855
MEAN_ANOMALY   = 290.9331

EPHEMERIS_TYPE = 0
CLASSIFICATION_TYPE = U
NORAD_CAT_ID   = 20262
ELEMENT_SET_NO = 999
REV_AT_EPOCH   = 64603
BSTAR          = .15647E-3
MEAN_MOTION_DOT = .55E-5
MEAN_MOTION_DDOT = 0

